OBJECT_NAME,OBJECT_ID,EPOCH,MEAN_MOTION,ECCENTRICITY,INCLINATION,RA_OF_ASC_NODE,ARG_OF_PERICENTER,MEAN_ANOMALY,EPHEMERIS_TYPE,CLASSIFICATION_TYPE,NORAD_CAT_ID,ELEMENT_SET_NO,REV_AT_EPOCH,BSTAR,MEAN_MOTION_DOT,MEAN_MOTION_DDOT
KUZGTU 1 (RS47S),2023-091AV,2026-07-17T04:19:37.576992,15.30496161,.0009875,97.5045,262.9769,359.0679,1.0542,0,U,57217,999,16896,.21623E-3,.6306E-4,0
SONATE-2,2024-043Q,2026-07-16T21:42:15.084000,15.60923042,.0006806,97.5562,350.1791,101.3090,258.8931,0,U,59112,999,13252,.33018E-3,.27586E-3,0
MESAT1,2024-125G,2026-07-17T00:46:04.872576,15.66606856,.0010855,97.2242,56.2634,106.5662,253.6792,0,U,60209,999,11423,.44705E-3,.46933E-3,0
OOV-CUBE (TUBSAT-30),2024-128F,2026-07-17T01:31:24.457728,15.02878305,.0040878,61.9940,121.3870,140.4347,219.9741,0,U,60240,999,11060,.85234E-4,.952E-5,0
COLIBRI-S (RS67S),2024-199M,2026-07-17T04:16:50.985696,15.48904776,.0009209,97.2941,72.3251,155.5113,204.6577,0,U,61746,999,14205,.24794E-3,.13305E-3,0
HORS 3 (RS81S),2024-199U,2026-07-17T02:55:22.986912,15.57003795,.0007343,97.2925,74.5971,150.3512,209.8161,0,U,61753,999,14221,.35101E-3,.253E-3,0
HORS 4 (RS82S),2024-199V,2026-07-17T02:42:14.707872,15.62523081,.0007212,97.2865,75.9999,142.8704,217.3055,0,U,61754,999,14231,.38249E-3,.34047E-3,0
SIT-2086,2024-199AF,2026-07-17T03:16:27.058656,15.55114158,.0008427,97.2881,74.9845,138.8732,221.3158,0,U,61764,999,13908,.35611E-3,.23945E-3,0
HYPERVIEW 1G (RS66S),2024-199AP,2026-07-17T03:13:29.360640,15.86005163,.0008339,97.2778,79.5744,143.8374,216.3462,0,U,61772,999,13940,.70142E-3,.175032E-2,0
ALTAIR (RS65S),2024-199AW,2026-07-17T01:18:06.208128,15.37531568,.0012237,97.2985,67.2129,189.5900,170.5113,0,U,61779,999,14170,.18137E-3,.6611E-4,0
ASRTU-1 (AO-123),2024-199AY,2026-07-17T01:40:04.679904,15.36070203,.0013215,97.2957,66.4730,193.6854,166.4033,0,U,61781,999,13851,.12305E-3,.4253E-4,0
SAMSAT-IONOSPHERE (RS75S),2024-199BB,2026-07-17T02:22:52.885344,15.60251833,.0009442,97.2889,74.7414,154.2777,205.8951,0,U,61784,999,14222,.38395E-3,.31334E-3,0
RTU MIREA 1 (RS51S),2024-199BC,2026-07-17T02:44:57.386112,15.64445589,.0009521,97.2874,75.7589,149.3837,210.7980,0,U,61785,999,13914,.43972E-3,.42301E-3,0
TEVEL2-4,2025-052D,2026-07-17T03:59:33.255168,15.35610547,.0003412,97.3861,94.6235,48.0092,312.1442,0,U,63213,999,7471,.29456E-3,.10121E-3,0
TEVEL2-5,2025-052E,2026-07-16T16:03:21.767616,15.35411833,.0003463,97.3862,94.0641,50.3372,309.8177,0,U,63214,999,7463,.32363E-3,.11058E-3,0
TEVEL2-6,2025-052F,2026-07-16T16:22:05.585376,15.35376184,.000351,97.3866,94.0622,52.4001,307.7561,0,U,63215,999,7463,.31404E-3,.10715E-3,0
TEVEL2-1,2025-052H,2026-07-16T15:45:17.596224,15.34805085,.0004184,97.3837,93.6246,57.2220,302.9426,0,U,63217,999,7461,.31887E-3,.10686E-3,0
TEVEL2-3,2025-052J,2026-07-17T04:06:58.184064,15.34878538,.0003828,97.3842,94.1664,58.5238,301.6379,0,U,63218,999,7469,.29333E-3,.9845E-4,0
TEVEL2-2,2025-052K,2026-07-17T04:16:31.417824,15.34826667,.0004154,97.3834,94.1498,56.3906,303.7733,0,U,63219,999,7469,.29646E-3,.9935E-4,0
OTP-2,2025-052AB,2026-07-16T15:19:58.249632,15.24348189,.0008122,97.3829,89.6315,67.1870,293.0224,0,U,63235,999,7435,.15834E-3,.3806E-4,0
TEVEL2-9,2025-052AD,2026-07-16T16:08:49.602048,15.32762164,.0007557,97.3899,92.9536,53.0535,307.1398,0,U,63237,999,7454,.32238E-3,.10133E-3,0
TEVEL2-7,2025-052AE,2026-07-17T04:14:23.728128,15.32453101,.0007602,97.3898,93.3596,51.1945,308.9975,0,U,63238,999,7461,.2876E-3,.8943E-4,0
TEVEL2-8,2025-052AF,2026-07-16T15:54:27.850176,15.32429153,.0007711,97.3904,92.8233,54.0583,306.1374,0,U,63239,999,7453,.30904E-3,.9609E-4,0
INNOSAT 16 (RS92S7),2025-155C,2026-07-17T04:09:29.168064,15.25750726,.0012456,97.4587,165.2153,82.4697,277.7955,0,U,64878,999,8524,.12283E-3,.3067E-4,0
GEOSCAN 6 (RS92S6),2025-155D,2026-07-17T04:37:12.424224,15.30677141,.0009911,97.4578,166.8755,76.5104,283.7241,0,U,64879,999,8535,.18564E-3,.5434E-4,0
GEOSCAN 1 (RS92S1),2025-155E,2026-07-17T04:23:06.275328,15.31327260,.0009828,97.4574,167.0408,76.7129,283.5208,0,U,64880,999,8536,.2002E-3,.5986E-4,0
239ALFEROV (RS61S),2025-155F,2026-07-17T04:08:58.961760,15.33704127,.0009541,97.4573,167.6973,76.8122,283.4184,0,U,64881,999,8540,.24863E-3,.8033E-4,0
GEOSCAN 2 (RS92S2),2025-155Q,2026-07-17T04:06:36.076032,15.31584286,.0008949,97.4572,167.1934,67.1780,293.0406,0,U,64890,999,8537,.19213E-3,.5787E-4,0
GEOSCAN 5 (RS92S5),2025-155R,2026-07-17T03:44:23.644608,15.34008392,.0008587,97.4566,167.8288,81.3473,278.8742,0,U,64891,999,8541,.23557E-3,.7679E-4,0
GEOSCAN 4 (RS92S4),2025-155S,2026-07-17T04:51:01.556640,15.34178083,.0008512,97.4570,167.9330,81.6263,278.5944,0,U,64892,999,8542,.25261E-3,.8285E-4,0
