KUZGTU 1 (RS47S)        
1 57217U 23091AV  26198.18029603  .00006306  00000+0  21623-3 0  9993
2 57217  97.5045 262.9769 0009875 359.0679   1.0542 15.30496161168961
SONATE-2                
1 59112U 24043Q   26197.90434125  .00027586  00000+0  33018-3 0  9999
2 59112  97.5562 350.1791 0006806 101.3090 258.8931 15.60923042132525
MESAT1                  
1 60209U 24125G   26198.03200084  .00046933  00000+0  44705-3 0  9991
2 60209  97.2242  56.2634 0010855 106.5662 253.6792 15.66606856114230
OOV-CUBE (TUBSAT-30)    
1 60240U 24128F   26198.06347752  .00000952  00000+0  85234-4 0  9990
2 60240  61.9940 121.3870 0040878 140.4347 219.9741 15.02878305110605
COLIBRI-S (RS67S)       
1 61746U 24199M   26198.17836789  .00013305  00000+0  24794-3 0  9994
2 61746  97.2941  72.3251 0009209 155.5113 204.6577 15.48904776142053
HORS 3 (RS81S)          
1 61753U 24199U   26198.12179383  .00025300  00000+0  35101-3 0  9999
2 61753  97.2925  74.5971 0007343 150.3512 209.8161 15.57003795142214
HORS 4 (RS82S)          
1 61754U 24199V   26198.11267023  .00034047  00000+0  38249-3 0  9992
2 61754  97.2865  75.9999 0007212 142.8704 217.3055 15.62523081142315
SIT-2086                
1 61764U 24199AF  26198.13642429  .00023945  00000+0  35611-3 0  9997
2 61764  97.2881  74.9845 0008427 138.8732 221.3158 15.55114158139080
HYPERVIEW 1G (RS66S)    
1 61772U 24199AP  26198.13436760  .00175032  00000+0  70142-3 0  9998
2 61772  97.2778  79.5744 0008339 143.8374 216.3462 15.86005163139400
ALTAIR (RS65S)          
1 61779U 24199AW  26198.05423852  .00006611  00000+0  18137-3 0  9996
2 61779  97.2985  67.2129 0012237 189.5900 170.5113 15.37531568141701
ASRTU-1 (AO-123)        
1 61781U 24199AY  26198.06949861  .00004253  00000+0  12305-3 0  9994
2 61781  97.2957  66.4730 0013215 193.6854 166.4033 15.36070203138516
SAMSAT-IONOSPHERE (RS7*)
1 61784U 24199BB  26198.09922321  .00031334  00000+0  38395-3 0  9999
2 61784  97.2889  74.7414 0009442 154.2777 205.8951 15.60251833142225
RTU MIREA 1 (RS51S)     
1 61785U 24199BC  26198.11455308  .00042301  00000+0  43972-3 0  9992
2 61785  97.2874  75.7589 0009521 149.3837 210.7980 15.64445589139145
TEVEL2-4                
1 63213U 25052D   26198.16635712  .00010121  00000+0  29456-3 0  9999
2 63213  97.3861  94.6235 0003412  48.0092 312.1442 15.35610547 74716
TEVEL2-5                
1 63214U 25052E   26197.66900194  .00011058  00000+0  32363-3 0  9994
2 63214  97.3862  94.0641 0003463  50.3372 309.8177 15.35411833 74632
TEVEL2-6                
1 63215U 25052F   26197.68200909  .00010715  00000+0  31404-3 0  9998
2 63215  97.3866  94.0622 0003510  52.4001 307.7561 15.35376184 74634
TEVEL2-1                
1 63217U 25052H   26197.65645366  .00010686  00000+0  31887-3 0  9999
2 63217  97.3837  93.6246 0004184  57.2220 302.9426 15.34805085 74616
TEVEL2-3                
1 63218U 25052J   26198.17150676  .00009845  00000+0  29333-3 0  9991
2 63218  97.3842  94.1664 0003828  58.5238 301.6379 15.34878538 74694
TEVEL2-2                
1 63219U 25052K   26198.17814141  .00009935  00000+0  29646-3 0  9993
2 63219  97.3834  94.1498 0004154  56.3906 303.7733 15.34826667 74695
OTP-2                   
1 63235U 25052AB  26197.63886863  .00003806  00000+0  15834-3 0  9996
2 63235  97.3829  89.6315 0008122  67.1870 293.0224 15.24348189 74359
TEVEL2-9                
1 63237U 25052AD  26197.67279632  .00010133  00000+0  32238-3 0  9990
2 63237  97.3899  92.9536 0007557  53.0535 307.1398 15.32762164 74545
TEVEL2-7                
1 63238U 25052AE  26198.17666352  .00008943  00000+0  28760-3 0  9997
2 63238  97.3898  93.3596 0007602  51.1945 308.9975 15.32453101 74617
TEVEL2-8                
1 63239U 25052AF  26197.66282234  .00009609  00000+0  30904-3 0  9997
2 63239  97.3904  92.8233 0007711  54.0583 306.1374 15.32429153 74533
INNOSAT 16 (RS92S7)     
1 64878U 25155C   26198.17325426  .00003067  00000+0  12283-3 0  9991
2 64878  97.4587 165.2153 0012456  82.4697 277.7955 15.25750726 85243
GEOSCAN 6 (RS92S6)      
1 64879U 25155D   26198.19250491  .00005434  00000+0  18564-3 0  9991
2 64879  97.4578 166.8755 0009911  76.5104 283.7241 15.30677141 85350
GEOSCAN 1 (RS92S1)      
1 64880U 25155E   26198.18271152  .00005986  00000+0  20020-3 0  9991
2 64880  97.4574 167.0408 0009828  76.7129 283.5208 15.31327260 85369
239ALFEROV (RS61S)      
1 64881U 25155F   26198.17290465  .00008033  00000+0  24863-3 0  9994
2 64881  97.4573 167.6973 0009541  76.8122 283.4184 15.33704127 85408
GEOSCAN 2 (RS92S2)      
1 64890U 25155Q   26198.17125088  .00005787  00000+0  19213-3 0  9998
2 64890  97.4572 167.1934 0008949  67.1780 293.0406 15.31584286 85373
GEOSCAN 5 (RS92S5)      
1 64891U 25155R   26198.15582922  .00007679  00000+0  23557-3 0  9999
2 64891  97.4566 167.8288 0008587  81.3473 278.8742 15.34008392 85412
GEOSCAN 4 (RS92S4)      
1 64892U 25155S   26198.20210135  .00008285  00000+0  25261-3 0  9998
2 64892  97.4570 167.9330 0008512  81.6263 278.5944 15.34178083 85422
